name,address,city,lattitude,longitude,source
"Thetford, Vermont",,"Thetford, VT",43.821673,-72.249766,Google Maps
"Knoxville, Tennessee",,"Knoxville, TN",35.98505,-83.929212,Google Maps
Knoxville,,"Knoxville, TN",35.98505,-83.929212,Google Maps
"Oak Ridge, Tennessee",,"Oak Ridge, TN",36.012236,-84.253159,Google Maps
Tennessee,,TN,36.199614,-86.777043,Google Maps
Tennessee,,TN,36.199614,-86.777043,Google Maps
Tennessee,,TN,36.199614,-86.777043,Google Maps
Mississippi [River],,,39.212995,-90.717675,Google Maps
New York City,,"New York City, NY",40.697149,-73.889078,Google Maps
Tennessee,,TN,36.199614,-86.777043,Google Maps
United States,,,38.889529,-77.009305,Google Maps
United States of America,,,38.889529,-77.009305,Google Maps
"Oak Ridge, Tennessee",,"Oak Ridge, TN",36.012236,-84.253159,Google Maps
Tennessee,,TN,36.199614,-86.777043,Google Maps
Tennessee,,TN,36.199614,-86.777043,Google Maps
"Milwaukee, Wisconsin",,"Milwaukee, WI",43.020668,-87.909074,Google Maps
Tennessee,,TN,36.199614,-86.777043,Google Maps
United States,,,38.889529,-77.009305,Google Maps
Knoxville,,"Knoxville, TN",35.985054,-83.929212,Google Maps
Knoxville,,"Knoxville, TN",35.985054,-83.929212,Google Maps
Knoxville,,"Knoxville, TN",35.985054,-83.929212,Google Maps
Knoxville,,"Knoxville, TN",35.98505,-83.929212,Google Maps
Knoxville,,"Knoxville, TN",35.98505,-83.929212,Google Maps
Tokyo,,Tokyo,35.6762,139.6503,Google Maps
Tokyo,,Tokyo,35.6762,139.6503,Google Maps
Tokyo,,Tokyo,35.6762,139.6503,Google Maps
Japan,,,35.6762,139.6503,Google Maps
U.S.,,,38.889529,-77.009305,Google Maps
Japan,,,35.6762,139.6503,Google Maps
Tennessee,,TN,36.199614,-86.777043,Google Maps
Wisconsin,,WI,43.028198,-87.91182,Google Maps
Wisconsin,,WI,43.028198,-87.91182,Google Maps
Hanover,,"Hanover, NH",43.703757,-72.288889,Google Maps
Wisconsin,,WI,43.028198,-87.91182,Google Maps
Wisconsin,,WI,43.028198,-87.91182,Google Maps
Russia,,,55.748355,37.604689,Google Maps
Russia,,,55.748355,37.604689,Google Maps
United States,,,38.889529,-77.009305,Google Maps
Russia,,,55.748355,37.604689,Google Maps
United States,,,38.889529,-77.009305,Google Maps
United States,,,38.889529,-77.009305,Google Maps
Wisconsin,,WI,43.028198,-87.91182,Google Maps
United States,,,38.889529,-77.009305,Google Maps
American,,,38.889529,-77.009305,Google Maps
Wisconsin,,WI,43.028198,-87.91182,Google Maps
Hitchcock Hall,18 Mass Row,"Hanover, NH",43.704819,-72.290656,Google Maps
Hitchcock,18 Mass Row,"Hanover, NH",43.704819,-72.290656,Google Maps
Hitchcock,18 Mass Row,"Hanover, NH",43.704819,-72.290656,Google Maps
Dartmouth,,"Hanover, NH",43.703757,-72.288889,Google Maps
Dartmouth,,"Hanover, NH",43.703757,-72.288889,Google Maps
United States,,,38.889529,-77.009305,Google Maps
Vietnam,,,21.018786,105.833333,Google Maps
Vietnam,,,21.018786,105.833333,Google Maps
Hitchcock Hall,18 Mass Row,"Hanover, NH",43.704819,-72.290656,Google Maps
Vietnam,,,21.018786,105.833333,Google Maps
U.S.,,,38.889529,-77.009305,Google Maps
United States,,,38.889529,-77.009305,Google Maps
North Vietnamese,,,21.018786,105.833333,Google Maps
Vietnamese,,,21.018786,105.833333,Google Maps
Vietnam,,,21.018786,105.833333,Google Maps
United States,,,38.889529,-77.009305,Google Maps
U.S.,,,38.889529,-77.009305,Google Maps
United States of America,,,38.889529,-77.009305,Google Maps
Mississippi,,MS,32.303925,-90.180744,Google Maps
U.S.,,,38.889529,-77.009305,Google Maps
American,,,38.88953,-77.009305,Google Maps
Vietnam,,,21.018786,105.833333,Google Maps
American,,,38.88953,-77.009305,Google Maps
Texas,,TX,30.359615,-97.653191,Google Maps
Texas,,TX,30.359615,-97.653191,Google Maps
American,,,38.88953,-77.009305,Google Maps
Ledyard Bridge,,"Hanover, NH",43.703555,-72.2995,Google Maps
Ledyard Bridge,,"Hanover, NH",43.703555,-72.2995,Google Maps
[Dartmouth] Green,,"Hanover, NH",43.703402,-72.288529,Google Maps
U.S.,,,38.88953,-77.009305,Google Maps
Vietnam,,,21.018786,105.833333,Google Maps
Milwaukee,,"Milwaukee, WI",43.020668,-87.909074,Google Maps
American,,,38.88953,-77.009305,Google Maps
Milwaukee,,"Milwaukee, WI",43.020668,-87.909074,Google Maps
Milwaukee,,"Milwaukee, WI",43.020668,-87.909074,Google Maps
Milwaukee,,"Milwaukee, WI",43.020668,-87.909074,Google Maps
Dartmouth,,"Hanover, NH",43.70376,-72.288889,Google Maps
Milwaukee,,"Milwaukee, WI",43.020668,-87.909074,Google Maps
Los Angeles,,"Los Angeles, CA",34.057715,-118.329373,Google Maps
Los Angeles,,"Los Angeles, CA",34.057715,-118.329373,Google Maps
Los Angeles,,"Los Angeles, CA",34.057715,-118.329373,Google Maps
Watts,,"Los Angeles, CA",33.937905,-118.241502,Google Maps
Pacific Coast Highway,,CA,37.598161,-122.501482,Google Maps
Watts,,"Los Angeles, CA",33.937905,-118.241502,Google Maps
Watts,,"Los Angeles, CA",33.937905,-118.241502,Google Maps
Watts,,"Los Angeles, CA",33.937905,-118.241502,Google Maps
Watts,,"Los Angeles, CA",33.937905,-118.241502,Google Maps
Milwaukee,,"Milwaukee, WI",43.020668,-87.909074,Google Maps
United States,,,38.88953,-77.009305,Google Maps
Watts,,"Los Angeles, CA",33.937905,-118.241502,Google Maps
Disneyland,,"Anaheim, CA",33.812056,-117.918985,Google Maps
American,,,38.88953,-77.009305,Google Maps
Disneyland,,"Anaheim, CA",33.812056,-117.918985,Google Maps
Milwaukee,,"Milwaukee, WI",43.020668,-87.909074,Google Maps
U.S.,,,38.88953,-77.009305,Google Maps
Vietnam,,,21.018786,105.833333,Google Maps
United States,,,38.88953,-77.009305,Google Maps
Dartmouth,,"Hanover, NH",43.703757,-72.288889,Google Maps
Dartmouth,,"Hanover, NH",43.703757,-72.288889,Google Maps
Dartmouth,,"Hanover, NH",43.70376,-72.288889,Google Maps
Dartmouth,,"Hanover, NH",43.70376,-72.288889,Google Maps
Vietnam,,,21.018786,105.833333,Google Maps
South Africa,,,-29.377985,24.703127,Google Maps
South Africa,,,-29.377985,24.703127,Google Maps
Vietnam,,,21.018786,105.833333,Google Maps
Canada,,,45.423567,-75.700174,Google Maps
Dartmouth,,"Hanover, NH",43.703757,-72.288889,Google Maps
Vietnam,,,21.018786,105.833333,Google Maps
Dartmouth,,"Hanover, NH",43.703757,-72.288889,Google Maps
Dartmouth,,"Hanover, NH",43.703757,-72.288889,Google Maps
New York City,,"New York City, NY",40.697149,-73.889078,Google Maps
Boston,,"Boston, MA",42.338632,-71.097322,Google Maps
Boston,,"Boston, MA",42.338632,-71.097322,Google Maps
Washington,,"Washington D.C., DC",38.889529,-77.009305,Google Maps
U.S.,,,38.88953,-77.009305,Google Maps
Arlington National Cemetery,,"Arlington, VA",38.8783,-77.06866,Google Maps
Boston,,"Boston, MA",42.338632,-71.097322,Google Maps
Arlington National Cemetery,,"Arlington, VA",38.8783,-77.06866,Google Maps
Vietnam,,,21.018786,105.833333,Google Maps
Vietnamese,,,21.018786,105.833333,Google Maps
Dartmouth,,"Hanover, NH",43.703757,-72.288889,Google Maps
Vietnam,,,21.018786,105.833333,Google Maps
Milwaukee,,"Milwaukee, WI",43.020668,-87.909074,Google Maps
New Hampshire,,NH,43.216231,-71.525797,Google Maps
Hanover,,"Hanover, NH",43.703757,-72.288889,Google Maps
Wisconsin,,WI,43.028198,-87.91182,Google Maps
Washington,,"Washington D.C., DC",38.889529,-77.009305,Google Maps
Washington,,"Washington D.C., DC",38.889529,-77.009305,Google Maps
Wisconsin,,WI,43.028198,-87.91182,Google Maps
Minnesota,,MN,44.965929,-93.26835,Google Maps
New Hampshire,,NH,43.216231,-71.525797,Google Maps
Lebanon,,"Lebanon, NH",43.634146,-72.252426,Google Maps
Vietnam,,,21.018786,105.833333,Google Maps
New Hampshire,,NH,43.216231,-71.525797,Google Maps
Canaan,,"Canaan, NH",43.677204,-72.045856,Google Maps
Dartmouth,,"Hanover, NH",43.703757,-72.288889,Google Maps
Milwaukee,,"Milwaukee, WI",43.020668,-87.909074,Google Maps
New Hampshire,,NH,43.216231,-71.525797,Google Maps
Lebanon,,"Lebanon, NH",43.634146,-72.252426,Google Maps
Dartmouth,,"Hanover, NH",43.703757,-72.288889,Google Maps
New Hampshire,,NH,43.216231,-71.525797,Google Maps
Milwaukee,,"Milwaukee, WI",43.020668,-87.909074,Google Maps
Dartmouth,,"Hanover, NH",43.703757,-72.288889,Google Maps
Webster Hall,,"Hanover, NH",43.706482,-72.292566,Google Maps
Lebanon,,"Lebanon, NH",43.634146,-72.252426,Google Maps
New Hampshire,,NH,43.216231,-71.525797,Google Maps
American,,,38.88953,-77.009305,Google Maps
Wisconsin,,WI,43.028198,-87.91182,Google Maps
Wisconsin,,WI,43.028198,-87.91182,Google Maps
New Hampshire,,NH,43.216231,-71.525797,Google Maps
Milwaukee,,"Milwaukee, WI",43.020668,-87.909074,Google Maps
Wisconsin,,WI,43.028198,-87.91182,Google Maps
New Hampshire,,NH,43.216231,-71.525797,Google Maps
Milwaukee,,"Milwaukee, WI",43.020668,-87.909074,Google Maps
Wisconsin,,WI,43.028198,-87.91182,Google Maps
Wisconsin,,WI,43.028198,-87.91182,Google Maps
America,,,38.88953,-77.009305,Google Maps
Canada,,,45.423567,-75.700174,Google Maps
American,,,38.88953,-77.009305,Google Maps
American,,,38.88953,-77.009305,Google Maps
American,,,38.88953,-77.009305,Google Maps
Dartmouth,,"Hanover, NH",43.703757,-72.288889,Google Maps
Dartmouth,,"Hanover, NH",43.703757,-72.288889,Google Maps
Dartmouth,,"Hanover, NH",43.703757,-72.288889,Google Maps
Philadelphia,,"Philadelphia, PA",40.005044,-75.12765,Google Maps
Philadelphia,,"Philadelphia, PA",40.005044,-75.12765,Google Maps
Philadelphia,,"Philadelphia, PA",40.005044,-75.12765,Google Maps
Philadelphia,,"Philadelphia, PA",40.005044,-75.12765,Google Maps
America,,,38.88953,-77.009305,Google Maps
Hanover,,"Hanover, NH",43.703757,-72.288889,Google Maps
Philadelphia,,"Philadelphia, PA",40.005044,-75.12765,Google Maps
"Albany,Vermont",,"Albany, VT",44.740293,-72.34302,Google Maps
Norwich,,"Norwich, VT ",43.754758,-72.324266,Google Maps
Norwich,,"Norwich, VT ",43.754758,-72.324266,Google Maps
91,,,44.671428,-72.132994,Google Maps
Norwich,,"Norwich, VT ",43.754758,-72.324266,Google Maps
Dartmouth,,"Hanover, NH",43.703757,-72.288889,Google Maps
American,,,38.88953,-77.009305,Google Maps
Iraq,,,33.314863,44.384307,Google Maps
Afghanistan,,,34.538682,69.244385,Google Maps
Kuwait,,,29.374793,47.98015,Google Maps
Vietnam,,,21.018786,105.833333,Google Maps
Vietnamese,,,21.018786,105.833333,Google Maps
United States of America,,,38.88953,-77.009305,Google Maps
Vietnamese,,,21.018786,105.833333,Google Maps
Vietnamese,,,21.018786,105.833333,Google Maps
Vietnam,,,21.018786,105.833333,Google Maps
American,,,38.88953,-77.009305,Google Maps
U.S.,,,38.88953,-77.009305,Google Maps
Parkhurst,14 N Main St,"Hanover, NH",43.703987,-72.289967,Google Maps
Vietnam,,,21.018786,105.833333,Google Maps